[{"OBJECT_NAME":"STARLINK-5667","OBJECT_ID":"2023-013G","EPOCH":"2026-03-09T22:00:01.999584","MEAN_MOTION":15.07492876,"ECCENTRICITY":0.0002117,"INCLINATION":43.0009,"RA_OF_ASC_NODE":286.0046,"ARG_OF_PERICENTER":269.9431,"MEAN_ANOMALY":104.8997,"EPHEMERIS_TYPE":0,"CLASSIFICATION_TYPE":"U","NORAD_CAT_ID":55337,"ELEMENT_SET_NO":999,"REV_AT_EPOCH":562,"BSTAR":0.002742591,"MEAN_MOTION_DOT":0.00042367,"MEAN_MOTION_DDOT":0},{"OBJECT_NAME":"CZ-6A DEB","OBJECT_ID":"2024-126C","EPOCH":"2026-03-09T22:45:09.534528","MEAN_MOTION":15.08339588,"ECCENTRICITY":0.00034995,"INCLINATION":97.8272,"RA_OF_ASC_NODE":88.0703,"ARG_OF_PERICENTER":249.9832,"MEAN_ANOMALY":110.1019,"EPHEMERIS_TYPE":0,"CLASSIFICATION_TYPE":"U","NORAD_CAT_ID":60213,"ELEMENT_SET_NO":999,"REV_AT_EPOCH":9177,"BSTAR":0.0010886629,"MEAN_MOTION_DOT":0.00016868,"MEAN_MOTION_DDOT":0}]
